CCSDS_OMM_VERS = 2.0
CREATION_DATE  = 
ORIGINATOR     = 

OBJECT_NAME    = STARLINK-35131
OBJECT_ID      = 2025-235T
CENTER_NAME    = EARTH
REF_FRAME      = TEME
TIME_SYSTEM    = UTC
MEAN_ELEMENT_THEORY = SGP/SGP4

EPOCH          = 2025-11-04T12:00:02.998944
MEAN_MOTION    = 15.70177491
ECCENTRICITY   = .0000802
INCLINATION    = 53.1593
RA_OF_ASC_NODE = 110.2561
ARG_OF_PERICENTER = 94.5438
MEAN_ANOMALY   = 320.4320

EPHEMERIS_TYPE = 0
CLASSIFICATION_TYPE = U
NORAD_CAT_ID   = 66075
ELEMENT_SET_NO = 999
REV_AT_EPOCH   = 373
BSTAR          = -.17431E-1
MEAN_MOTION_DOT = -.1910527E-1
MEAN_MOTION_DDOT = 0

CCSDS_OMM_VERS = 2.0
CREATION_DATE  = 
ORIGINATOR     = 

OBJECT_NAME    = STARLINK-34801
OBJECT_ID      = 2025-235U
CENTER_NAME    = EARTH
REF_FRAME      = TEME
TIME_SYSTEM    = UTC
MEAN_ELEMENT_THEORY = SGP/SGP4

EPOCH          = 2025-11-04T12:00:02.998944
MEAN_MOTION    = 15.70051881
ECCENTRICITY   = .0001215
INCLINATION    = 53.1588
RA_OF_ASC_NODE = 110.2644
ARG_OF_PERICENTER = 91.1340
MEAN_ANOMALY   = 320.1001

EPHEMERIS_TYPE = 0
CLASSIFICATION_TYPE = U
NORAD_CAT_ID   = 66076
ELEMENT_SET_NO = 999
REV_AT_EPOCH   = 373
BSTAR          = -.16168E-1
MEAN_MOTION_DOT = -.1745999E-1
MEAN_MOTION_DDOT = 0

CCSDS_OMM_VERS = 2.0
CREATION_DATE  = 
ORIGINATOR     = 

OBJECT_NAME    = STARLINK-35129
OBJECT_ID      = 2025-235V
CENTER_NAME    = EARTH
REF_FRAME      = TEME
TIME_SYSTEM    = UTC
MEAN_ELEMENT_THEORY = SGP/SGP4

EPOCH          = 2025-11-04T12:00:02.998944
MEAN_MOTION    = 15.70178058
ECCENTRICITY   = .0001075
INCLINATION    = 53.1586
RA_OF_ASC_NODE = 110.2614
ARG_OF_PERICENTER = 74.8507
MEAN_ANOMALY   = 338.2043

EPHEMERIS_TYPE = 0
CLASSIFICATION_TYPE = U
NORAD_CAT_ID   = 66077
ELEMENT_SET_NO = 999
REV_AT_EPOCH   = 373
BSTAR          = -.17425E-1
MEAN_MOTION_DOT = -.1910159E-1
MEAN_MOTION_DDOT = 0

CCSDS_OMM_VERS = 2.0
CREATION_DATE  = 
ORIGINATOR     = 

OBJECT_NAME    = STARLINK-35116
OBJECT_ID      = 2025-235W
CENTER_NAME    = EARTH
REF_FRAME      = TEME
TIME_SYSTEM    = UTC
MEAN_ELEMENT_THEORY = SGP/SGP4

EPOCH          = 2025-11-04T12:00:02.998944
MEAN_MOTION    = 15.70177065
ECCENTRICITY   = .0000951
INCLINATION    = 53.1593
RA_OF_ASC_NODE = 110.2475
ARG_OF_PERICENTER = 86.7458
MEAN_ANOMALY   = 332.0633

EPHEMERIS_TYPE = 0
CLASSIFICATION_TYPE = U
NORAD_CAT_ID   = 66078
ELEMENT_SET_NO = 999
REV_AT_EPOCH   = 373
BSTAR          = -.17426E-1
MEAN_MOTION_DOT = -.1910134E-1
MEAN_MOTION_DDOT = 0

CCSDS_OMM_VERS = 2.0
CREATION_DATE  = 
ORIGINATOR     = 

OBJECT_NAME    = STARLINK-35402
OBJECT_ID      = 2025-235X
CENTER_NAME    = EARTH
REF_FRAME      = TEME
TIME_SYSTEM    = UTC
MEAN_ELEMENT_THEORY = SGP/SGP4

EPOCH          = 2025-11-04T12:00:02.998944
MEAN_MOTION    = 15.70176192
ECCENTRICITY   = .0001016
INCLINATION    = 53.1593
RA_OF_ASC_NODE = 110.2440
ARG_OF_PERICENTER = 75.1297
MEAN_ANOMALY   = 345.5949

EPHEMERIS_TYPE = 0
CLASSIFICATION_TYPE = U
NORAD_CAT_ID   = 66079
ELEMENT_SET_NO = 999
REV_AT_EPOCH   = 373
BSTAR          = -.17412E-1
MEAN_MOTION_DOT = -.1908717E-1
MEAN_MOTION_DDOT = 0

CCSDS_OMM_VERS = 2.0
CREATION_DATE  = 
ORIGINATOR     = 

OBJECT_NAME    = STARLINK-35325
OBJECT_ID      = 2025-235Y
CENTER_NAME    = EARTH
REF_FRAME      = TEME
TIME_SYSTEM    = UTC
MEAN_ELEMENT_THEORY = SGP/SGP4

EPOCH          = 2025-11-04T12:00:02.998944
MEAN_MOTION    = 15.70176607
ECCENTRICITY   = .0000952
INCLINATION    = 53.1582
RA_OF_ASC_NODE = 110.2513
ARG_OF_PERICENTER = 87.0102
MEAN_ANOMALY   = 329.8831

EPHEMERIS_TYPE = 0
CLASSIFICATION_TYPE = U
NORAD_CAT_ID   = 66080
ELEMENT_SET_NO = 999
REV_AT_EPOCH   = 373
BSTAR          = -.17428E-1
MEAN_MOTION_DOT = -.1910223E-1
MEAN_MOTION_DDOT = 0

CCSDS_OMM_VERS = 2.0
CREATION_DATE  = 
ORIGINATOR     = 

OBJECT_NAME    = STARLINK-35403
OBJECT_ID      = 2025-235Z
CENTER_NAME    = EARTH
REF_FRAME      = TEME
TIME_SYSTEM    = UTC
MEAN_ELEMENT_THEORY = SGP/SGP4

EPOCH          = 2025-11-04T12:00:02.998944
MEAN_MOTION    = 15.70169987
ECCENTRICITY   = .0000806
INCLINATION    = 53.1594
RA_OF_ASC_NODE = 110.2373
ARG_OF_PERICENTER = 88.0771
MEAN_ANOMALY   = 336.4854

EPHEMERIS_TYPE = 0
CLASSIFICATION_TYPE = U
NORAD_CAT_ID   = 66081
ELEMENT_SET_NO = 999
REV_AT_EPOCH   = 373
BSTAR          = -.17339E-1
MEAN_MOTION_DOT = -.1901002E-1
MEAN_MOTION_DDOT = 0

CCSDS_OMM_VERS = 2.0
CREATION_DATE  = 
ORIGINATOR     = 

OBJECT_NAME    = STARLINK-35011
OBJECT_ID      = 2025-235AA
CENTER_NAME    = EARTH
REF_FRAME      = TEME
TIME_SYSTEM    = UTC
MEAN_ELEMENT_THEORY = SGP/SGP4

EPOCH          = 2025-11-04T12:00:02.998944
MEAN_MOTION    = 15.70175609
ECCENTRICITY   = .0000952
INCLINATION    = 53.1593
RA_OF_ASC_NODE = 110.2393
ARG_OF_PERICENTER = 84.8023
MEAN_ANOMALY   = 337.8397

EPHEMERIS_TYPE = 0
CLASSIFICATION_TYPE = U
NORAD_CAT_ID   = 66082
ELEMENT_SET_NO = 999
REV_AT_EPOCH   = 373
BSTAR          = -.17393E-1
MEAN_MOTION_DOT = -.1906758E-1
MEAN_MOTION_DDOT = 0

CCSDS_OMM_VERS = 2.0
CREATION_DATE  = 
ORIGINATOR     = 

OBJECT_NAME    = STARLINK-35291
OBJECT_ID      = 2025-235AB
CENTER_NAME    = EARTH
REF_FRAME      = TEME
TIME_SYSTEM    = UTC
MEAN_ELEMENT_THEORY = SGP/SGP4

EPOCH          = 2025-11-04T12:00:02.998944
MEAN_MOTION    = 15.70174959
ECCENTRICITY   = .0000808
INCLINATION    = 53.1594
RA_OF_ASC_NODE = 110.2319
ARG_OF_PERICENTER = 88.2457
MEAN_ANOMALY   = 338.2317

EPHEMERIS_TYPE = 0
CLASSIFICATION_TYPE = U
NORAD_CAT_ID   = 66083
ELEMENT_SET_NO = 999
REV_AT_EPOCH   = 368
BSTAR          = -.17413E-1
MEAN_MOTION_DOT = -.1908622E-1
MEAN_MOTION_DDOT = 0

CCSDS_OMM_VERS = 2.0
CREATION_DATE  = 
ORIGINATOR     = 

OBJECT_NAME    = STARLINK-35379
OBJECT_ID      = 2025-235AC
CENTER_NAME    = EARTH
REF_FRAME      = TEME
TIME_SYSTEM    = UTC
MEAN_ELEMENT_THEORY = SGP/SGP4

EPOCH          = 2025-11-04T12:00:02.998944
MEAN_MOTION    = 15.70175981
ECCENTRICITY   = .0000941
INCLINATION    = 53.1585
RA_OF_ASC_NODE = 110.2275
ARG_OF_PERICENTER = 84.6651
MEAN_ANOMALY   = 343.7293

EPHEMERIS_TYPE = 0
CLASSIFICATION_TYPE = U
NORAD_CAT_ID   = 66084
ELEMENT_SET_NO = 999
REV_AT_EPOCH   = 373
BSTAR          = -.17418E-1
MEAN_MOTION_DOT = -.1909279E-1
MEAN_MOTION_DDOT = 0

CCSDS_OMM_VERS = 2.0
CREATION_DATE  = 
ORIGINATOR     = 

OBJECT_NAME    = STARLINK-35370
OBJECT_ID      = 2025-235AD
CENTER_NAME    = EARTH
REF_FRAME      = TEME
TIME_SYSTEM    = UTC
MEAN_ELEMENT_THEORY = SGP/SGP4

EPOCH          = 2025-11-04T12:00:02.998944
MEAN_MOTION    = 15.70173650
ECCENTRICITY   = .0000856
INCLINATION    = 53.1593
RA_OF_ASC_NODE = 110.2231
ARG_OF_PERICENTER = 88.3213
MEAN_ANOMALY   = 341.9904

EPHEMERIS_TYPE = 0
CLASSIFICATION_TYPE = U
NORAD_CAT_ID   = 66085
ELEMENT_SET_NO = 999
REV_AT_EPOCH   = 368
BSTAR          = -.17388E-1
MEAN_MOTION_DOT = -.1906073E-1
MEAN_MOTION_DDOT = 0

CCSDS_OMM_VERS = 2.0
CREATION_DATE  = 
ORIGINATOR     = 

OBJECT_NAME    = STARLINK-35596
OBJECT_ID      = 2025-236A
CENTER_NAME    = EARTH
REF_FRAME      = TEME
TIME_SYSTEM    = UTC
MEAN_ELEMENT_THEORY = SGP/SGP4

EPOCH          = 2025-11-04T12:00:02.998944
MEAN_MOTION    = 15.74127615
ECCENTRICITY   = .000128
INCLINATION    = 53.1576
RA_OF_ASC_NODE = 329.9691
ARG_OF_PERICENTER = 73.0286
MEAN_ANOMALY   = 275.1821

EPHEMERIS_TYPE = 0
CLASSIFICATION_TYPE = U
NORAD_CAT_ID   = 66086
ELEMENT_SET_NO = 999
REV_AT_EPOCH   = 373
BSTAR          = .3977E-3
MEAN_MOTION_DOT = .57861E-3
MEAN_MOTION_DDOT = 0

