STARLINK-35131          
1 66075U 25235T   25308.50003471 -.01910527  00000+0 -17431-1 0  9992
2 66075  53.1593 110.2561 0000802  94.5438 320.4320 15.70177491  3730
STARLINK-34801          
1 66076U 25235U   25308.50003471 -.01745999  00000+0 -16168-1 0  9998
2 66076  53.1588 110.2644 0001215  91.1340 320.1001 15.70051881  3738
STARLINK-35129          
1 66077U 25235V   25308.50003471 -.01910159  00000+0 -17425-1 0  9998
2 66077  53.1586 110.2614 0001075  74.8507 338.2043 15.70178058  3733
STARLINK-35116          
1 66078U 25235W   25308.50003471 -.01910134  00000+0 -17426-1 0  9993
2 66078  53.1593 110.2475 0000951  86.7458 332.0633 15.70177065  3730
STARLINK-35402          
1 66079U 25235X   25308.50003471 -.01908717  00000+0 -17412-1 0  9993
2 66079  53.1593 110.2440 0001016  75.1297 345.5949 15.70176192  3738
STARLINK-35325          
1 66080U 25235Y   25308.50003471 -.01910223  00000+0 -17428-1 0  9997
2 66080  53.1582 110.2513 0000952  87.0102 329.8831 15.70176607  3730
STARLINK-35403          
1 66081U 25235Z   25308.50003471 -.01901002  00000+0 -17339-1 0  9994
2 66081  53.1594 110.2373 0000806  88.0771 336.4854 15.70169987  3731
STARLINK-35011          
1 66082U 25235AA  25308.50003471 -.01906758  00000+0 -17393-1 0  9998
2 66082  53.1593 110.2393 0000952  84.8023 337.8397 15.70175609  3734
STARLINK-35291          
1 66083U 25235AB  25308.50003471 -.01908622  00000+0 -17413-1 0  9994
2 66083  53.1594 110.2319 0000808  88.2457 338.2317 15.70174959  3681
STARLINK-35379          
1 66084U 25235AC  25308.50003471 -.01909279  00000+0 -17418-1 0  9999
2 66084  53.1585 110.2275 0000941  84.6651 343.7293 15.70175981  3733
STARLINK-35370          
1 66085U 25235AD  25308.50003471 -.01906073  00000+0 -17388-1 0  9995
2 66085  53.1593 110.2231 0000856  88.3213 341.9904 15.70173650  3689
STARLINK-35596          
1 66086U 25236A   25308.50003471  .00057861  00000+0  39770-3 0  9997
2 66086  53.1576 329.9691 0001280  73.0286 275.1821 15.74127615  3739
